{"type": "FeatureCollection", "features": [ {"type": "Feature", "properties": {"norad_id": 54234, "name": "NOAA 21 (JPSS-2)", "group": "weather", "lat": 53.003415035434074, "lon": -87.33537733933478, "alt_km": 820.4498549493237, "timestamp": "2025-12-14T03:55:52.436856+00:00", "meta": {"OBJECT_NAME": "NOAA 21 (JPSS-2)", "OBJECT_ID": "2022-150A", "EPOCH": "2025-12-13T07:22:42.159360", "MEAN_MOTION": 14.19524694, "ECCENTRICITY": 0.00022069, "INCLINATION": 98.7462, "RA_OF_ASC_NODE": 283.6086, "ARG_OF_PERICENTER": 37.181, "MEAN_ANOMALY": 322.9518, "EPHEMERIS_TYPE": 0, "CLASSIFICATION_TYPE": "U", "NORAD_CAT_ID": 54234, "ELEMENT_SET_NO": 999, "REV_AT_EPOCH": 16017, "BSTAR": 0.00010864824, "MEAN_MOTION_DOT": 1.85e-06, "MEAN_MOTION_DDOT": 0}, "tle": {"line1": "1 54234U 22150A   25347.30743240  .00000185  00000+0  10865-3 0  9998", "line2": "2 54234  98.7462 283.6086 0002206  37.1810 322.9518 14.19524694160179"}}, "geometry": {"type": "Point", "coordinates": [-87.33537733933478, 53.003415035434074]}}, {"type": "Feature", "properties": {"norad_id": 54743, "name": "METEOSAT-12 (MTG-I1)", "group": "weather", "lat": 0.6113713267433611, "lon": 141.7636242824309, "alt_km": 35790.25321183981, "timestamp": "2025-12-14T03:55:52.436871+00:00", "meta": {"OBJECT_NAME": "METEOSAT-12 (MTG-I1)", "OBJECT_ID": "2022-170C", "EPOCH": "2025-12-13T04:53:13.486848", "MEAN_MOTION": 1.00269152, "ECCENTRICITY": 0.00016908, "INCLINATION": 0.6874, "RA_OF_ASC_NODE": 23.6793, "ARG_OF_PERICENTER": 237.9001, "MEAN_ANOMALY": 253.6075, "EPHEMERIS_TYPE": 0, "CLASSIFICATION_TYPE": "U", "NORAD_CAT_ID": 54743, "ELEMENT_SET_NO": 999, "REV_AT_EPOCH": 1111, "BSTAR": 0, "MEAN_MOTION_DOT": 6e-08, "MEAN_MOTION_DDOT": 0}, "tle": {"line1": "1 54743U 22170C   25347.20362832  .00000006  00000+0  00000+0 0  9996", "line2": "2 54743   0.6874  23.6793 0001690 237.9001 253.6075  1.00269152 11116"}}, "geometry": {"type": "Point", "coordinates": [141.7636242824309, 0.6113713267433611]}}, {"type": "Feature", "properties": {"norad_id": 55973, "name": "TIANMU-1 03", "group": "weather", "lat": -60.35479282444918, "lon": -42.54964308808346, "alt_km": 453.3665164112872, "timestamp": "2025-12-14T03:55:52.436883+00:00", "meta": {"OBJECT_NAME": "TIANMU-1 03", "OBJECT_ID": "2023-039A", "EPOCH": "2025-12-13T08:11:10.380768", "MEAN_MOTION": 15.40950697, "ECCENTRICITY": 0.00043997, "INCLINATION": 97.5107, "RA_OF_ASC_NODE": 150.0093, "ARG_OF_PERICENTER": 59.242, "MEAN_ANOMALY": 300.9259, "EPHEMERIS_TYPE": 0, "CLASSIFICATION_TYPE": "U", "NORAD_CAT_ID": 55973, "ELEMENT_SET_NO": 999, "REV_AT_EPOCH": 15215, "BSTAR": 0.00057681171, "MEAN_MOTION_DOT": 0.00023709, "MEAN_MOTION_DDOT": 0}, "tle": {"line1": "1 55973U 23039A   25347.34109237  .00023709  00000+0  57681-3 0  9996", "line2": "2 55973  97.5107 150.0093 0004399  59.2420 300.9259 15.40950697152153"}}, "geometry": {"type": "Point", "coordinates": [-42.54964308808346, -60.35479282444918]}}, {"type": "Feature", "properties": {"norad_id": 55974, "name": "TIANMU-1 04", "group": "weather", "lat": -3.2755539059084966, "lon": 150.47744996966267, "alt_km": 443.7116241257636, "timestamp": "2025-12-14T03:55:52.436893+00:00", "meta": {"OBJECT_NAME": "TIANMU-1 04", "OBJECT_ID": "2023-039B", "EPOCH": "2025-12-13T06:07:53.999904", "MEAN_MOTION": 15.41283948, "ECCENTRICITY": 0.00050472, "INCLINATION": 97.5038, "RA_OF_ASC_NODE": 149.1121, "ARG_OF_PERICENTER": 54.444, "MEAN_ANOMALY": 305.7276, "EPHEMERIS_TYPE": 0, "CLASSIFICATION_TYPE": "U", "NORAD_CAT_ID": 55974, "ELEMENT_SET_NO": 999, "REV_AT_EPOCH": 15214, "BSTAR": 0.00057486438, "MEAN_MOTION_DOT": 0.00023894, "MEAN_MOTION_DDOT": 0}, "tle": {"line1": "1 55974U 23039B   25347.25548611  .00023894  00000+0  57486-3 0  9998", "line2": "2 55974  97.5038 149.1121 0005047  54.4440 305.7276 15.41283948152148"}}, "geometry": {"type": "Point", "coordinates": [150.47744996966267, -3.2755539059084966]}}, {"type": "Feature", "properties": {"norad_id": 55975, "name": "TIANMU-1 05", "group": "weather", "lat": 26.42855163617747, "lon": 146.77898437594678, "alt_km": 440.411452183278, "timestamp": "2025-12-14T03:55:52.436903+00:00", "meta": {"OBJECT_NAME": "TIANMU-1 05", "OBJECT_ID": "2023-039C", "EPOCH": "2025-12-13T05:59:47.839200", "MEAN_MOTION": 15.40902932, "ECCENTRICITY": 0.00043652, "INCLINATION": 97.5084, "RA_OF_ASC_NODE": 149.5988, "ARG_OF_PERICENTER": 76.5312, "MEAN_ANOMALY": 283.642, "EPHEMERIS_TYPE": 0, "CLASSIFICATION_TYPE": "U", "NORAD_CAT_ID": 55975, "ELEMENT_SET_NO": 999, "REV_AT_EPOCH": 15212, "BSTAR": 0.00055972101, "MEAN_MOTION_DOT": 0.00022965, "MEAN_MOTION_DDOT": 0}, "tle": {"line1": "1 55975U 23039C   25347.24985925  .00022965  00000+0  55972-3 0  9997", "line2": "2 55975  97.5084 149.5988 0004365  76.5312 283.6420 15.40902932152123"}}, "geometry": {"type": "Point", "coordinates": [146.77898437594678, 26.42855163617747]}}, {"type": "Feature", "properties": {"norad_id": 55976, "name": "TIANMU-1 06", "group": "weather", "lat": -14.967531612769589, "lon": 153.0250443085098, "alt_km": 446.49939340122273, "timestamp": "2025-12-14T03:55:52.436914+00:00", "meta": {"OBJECT_NAME": "TIANMU-1 06", "OBJECT_ID": "2023-039D", "EPOCH": "2025-12-13T06:11:00.408768", "MEAN_MOTION": 15.4133572, "ECCENTRICITY": 0.00046446, "INCLINATION": 97.5096, "RA_OF_ASC_NODE": 150.0723, "ARG_OF_PERICENTER": 71.5696, "MEAN_ANOMALY": 288.6055, "EPHEMERIS_TYPE": 0, "CLASSIFICATION_TYPE": "U", "NORAD_CAT_ID": 55976, "ELEMENT_SET_NO": 999, "REV_AT_EPOCH": 15214, "BSTAR": 0.00056754726, "MEAN_MOTION_DOT": 0.00023626, "MEAN_MOTION_DDOT": 0}, "tle": {"line1": "1 55976U 23039D   25347.25764362  .00023626  00000+0  56755-3 0  9994", "line2": "2 55976  97.5096 150.0723 0004644  71.5696 288.6055 15.41335720152148"}}, "geometry": {"type": "Point", "coordinates": [153.0250443085098, -14.967531612769589]}}, {"type": "Feature", "properties": {"norad_id": 56232, "name": "FENGYUN 3G", "group": "weather", "lat": 30.300795513518594, "lon": 10.708450251131106, "alt_km": 395.6066090528293, "timestamp": "2025-12-14T03:55:52.436927+00:00", "meta": {"OBJECT_NAME": "FENGYUN 3G", "OBJECT_ID": "2023-055A", "EPOCH": "2025-12-13T05:43:41.581344", "MEAN_MOTION": 15.53691815, "ECCENTRICITY": 0.00093164, "INCLINATION": 49.9931, "RA_OF_ASC_NODE": 224.8801, "ARG_OF_PERICENTER": 150.7063, "MEAN_ANOMALY": 209.4429, "EPHEMERIS_TYPE": 0, "CLASSIFICATION_TYPE": "U", "NORAD_CAT_ID": 56232, "ELEMENT_SET_NO": 999, "REV_AT_EPOCH": 15110, "BSTAR": 0.00071714128, "MEAN_MOTION_DOT": 0.0004667, "MEAN_MOTION_DDOT": 0}, "tle": {"line1": "1 56232U 23055A   25347.23867571  .00046670  00000+0  71714-3 0  9998", "line2": "2 56232  49.9931 224.8801 0009316 150.7063 209.4429 15.53691815151103"}}, "geometry": {"type": "Point", "coordinates": [10.708450251131106, 30.300795513518594]}}, {"type": "Feature", "properties": {"norad_id": 57166, "name": "METEOR-M2 3", "group": "weather", "lat": -16.367569671661748, "lon": 44.23698562595453, "alt_km": 813.9623357533756, "timestamp": "2025-12-14T03:55:52.436939+00:00", "meta": {"OBJECT_NAME": "METEOR-M2 3", "OBJECT_ID": "2023-091A", "EPOCH": "2025-12-13T07:46:22.622016", "MEAN_MOTION": 14.24026233, "ECCENTRICITY": 0.00038734, "INCLINATION": 98.6378, "RA_OF_ASC_NODE": 40.853, "ARG_OF_PERICENTER": 7.3753, "MEAN_ANOMALY": 352.7482, "EPHEMERIS_TYPE": 0, "CLASSIFICATION_TYPE": "U", "NORAD_CAT_ID": 57166, "ELEMENT_SET_NO": 999, "REV_AT_EPOCH": 12806, "BSTAR": 3.5383238e-05, "MEAN_MOTION_DOT": 3.8e-07, "MEAN_MOTION_DDOT": 0}, "tle": {"line1": "1 57166U 23091A   25347.32387294  .00000038  00000+0  35383-4 0  9995", "line2": "2 57166  98.6378  40.8530 0003873   7.3753 352.7482 14.24026233128069"}}, "geometry": {"type": "Point", "coordinates": [44.23698562595453, -16.367569671661748]}}, {"type": "Feature", "properties": {"norad_id": 57399, "name": "TIANMU-1 07", "group": "weather", "lat": -16.864603061414112, "lon": 40.2057537787931, "alt_km": 486.7512265255664, "timestamp": "2025-12-14T03:55:52.436950+00:00", "meta": {"OBJECT_NAME": "TIANMU-1 07", "OBJECT_ID": "2023-101A", "EPOCH": "2025-12-13T06:00:11.299392", "MEAN_MOTION": 15.28085501, "ECCENTRICITY": 0.00055818, "INCLINATION": 97.2881, "RA_OF_ASC_NODE": 37.0886, "ARG_OF_PERICENTER": 80.5046, "MEAN_ANOMALY": 279.6824, "EPHEMERIS_TYPE": 0, "CLASSIFICATION_TYPE": "U", "NORAD_CAT_ID": 57399, "ELEMENT_SET_NO": 999, "REV_AT_EPOCH": 13323, "BSTAR": 0.00043389157, "MEAN_MOTION_DOT": 0.00011822, "MEAN_MOTION_DDOT": 0}, "tle": {"line1": "1 57399U 23101A   25347.25013078  .00011822  00000+0  43389-3 0  9990", "line2": "2 57399  97.2881  37.0886 0005581  80.5046 279.6824 15.28085501133239"}}, "geometry": {"type": "Point", "coordinates": [40.2057537787931, -16.864603061414112]}}, {"type": "Feature", "properties": {"norad_id": 57400, "name": "TIANMU-1 08", "group": "weather", "lat": 14.842727089608935, "lon": -140.27667063342417, "alt_km": 482.08154477834523, "timestamp": "2025-12-14T03:55:52.436960+00:00", "meta": {"OBJECT_NAME": "TIANMU-1 08", "OBJECT_ID": "2023-101B", "EPOCH": "2025-12-13T06:46:53.827680", "MEAN_MOTION": 15.28070299, "ECCENTRICITY": 0.00075105, "INCLINATION": 97.287, "RA_OF_ASC_NODE": 36.9182, "ARG_OF_PERICENTER": 82.5773, "MEAN_ANOMALY": 277.632, "EPHEMERIS_TYPE": 0, "CLASSIFICATION_TYPE": "U", "NORAD_CAT_ID": 57400, "ELEMENT_SET_NO": 999, "REV_AT_EPOCH": 13323, "BSTAR": 0.00046431928, "MEAN_MOTION_DOT": 0.00012656, "MEAN_MOTION_DDOT": 0}, "tle": {"line1": "1 57400U 23101B   25347.28256745  .00012656  00000+0  46432-3 0  9994", "line2": "2 57400  97.2870  36.9182 0007510  82.5773 277.6320 15.28070299133237"}}, "geometry": {"type": "Point", "coordinates": [-140.27667063342417, 14.842727089608935]}}]}